OBJECT_NAME,OBJECT_ID,EPOCH,MEAN_MOTION,ECCENTRICITY,INCLINATION,RA_OF_ASC_NODE,ARG_OF_PERICENTER,MEAN_ANOMALY,EPHEMERIS_TYPE,CLASSIFICATION_TYPE,NORAD_CAT_ID,ELEMENT_SET_NO,REV_AT_EPOCH,BSTAR,MEAN_MOTION_DOT,MEAN_MOTION_DDOT
FORMOSAT 7-3,2019-036E,2026-06-18T08:57:40.720608,15.09805082,.0000316,23.9974,170.3761,298.1513,61.8958,0,U,44343,999,38342,.16102E-3,.3016E-4,0
FORMOSAT 7-1,2019-036L,2026-06-17T21:55:46.904448,14.96508462,.00007465,23.9987,27.4949,163.4061,196.6465,0,U,44349,999,38476,.16935154E-3,.2274E-4,0
FORMOSAT 7-4,2019-036M,2026-06-18T20:52:22.124928,14.96503379,.0001041,23.9980,83.1546,199.7462,160.2999,0,U,44350,999,38432,.15278E-3,.2081E-4,0
FORMOSAT 7-2,2019-036N,2026-06-18T00:36:20.150208,14.96501020,.00006628,23.9964,143.1646,170.5801,189.4713,0,U,44351,999,38371,.14648673E-3,.2008E-4,0
FORMOSAT 7-6,2019-036Q,2026-06-18T18:12:09.133056,14.96517563,.0001398,23.9990,319.0385,106.6528,253.4127,0,U,44353,999,38205,.16763E-3,.2255E-4,0
FORMOSAT 7-5,2019-036V,2026-06-18T12:51:20.641248,14.96522726,.0000483,23.9984,259.2921,124.9382,235.1164,0,U,44358,999,38255,.14961E-3,.2045E-4,0
METEOR-M2 2,2019-038A,2026-06-18T20:38:52.822176,14.24366548,.0002012,98.9145,157.1706,45.4805,314.6537,0,U,44387,999,36153,.38117E-4,.42E-6,0
GLOBAL-4,2019-054E,2026-06-18T20:46:22.466784,15.64546592,.000579,45.0042,226.7147,345.3319,14.7410,0,U,44499,999,38062,.37594E-3,.36955E-3,0
ZY-1 02D,2019-059A,2026-06-18T11:06:46.406304,14.35798543,.0003505,98.5262,230.9234,50.6973,309.4523,0,U,44528,999,35452,.52043E-4,.107E-5,0
TAURUS-1 (JINNIUZUO 1),2019-059C,2026-06-18T19:20:45.554784,14.72109570,.000738,98.6417,334.7334,310.2454,49.8106,0,U,44530,999,35888,.75535E-3,.4701E-4,0
ZHUHAI-1 03B,2019-060C,2026-06-18T20:34:39.390240,15.54165545,.0007365,97.5534,327.7122,310.5981,49.4631,0,U,44536,999,37658,.38149E-3,.24774E-3,0
ZHUHAI-1 03D,2019-060E,2026-06-18T20:06:36.364896,15.49828745,.0006594,97.5400,319.7989,293.2367,66.8189,0,U,44538,999,37633,.46112E-3,.25656E-3,0
ZHUHAI-1 03E,2019-060F,2026-06-18T20:48:13.076064,15.41110748,.0005771,97.5621,319.8717,27.5433,332.6118,0,U,44539,999,37602,.33213E-3,.13671E-3,0
GAOFEN-7,2019-072A,2026-06-18T20:14:28.685184,15.21273714,.0018683,97.2424,231.2485,35.8830,324.3657,0,U,44703,999,36789,.14329E-3,.315E-4,0
JILIN-1 GAOFEN 2A,2019-075A,2026-06-18T19:48:22.685184,15.39345912,.0007401,97.4964,253.6535,82.8122,277.3964,0,U,44777,999,36513,.28053E-3,.10882E-3,0
NINGXIA-1 1,2019-076A,2026-06-18T19:41:31.568928,14.02038377,.0010734,45.0036,172.5527,171.3875,188.7145,0,U,44779,999,33808,.21269E-4,-.97E-6,0
NINGXIA-1 5,2019-076E,2026-06-18T20:00:35.252640,14.02085669,.0010163,45.0031,171.8345,161.1999,198.9212,0,U,44783,999,33800,-.58295E-4,-.22E-5,0
KL-ALPHA A,2019-077A,2026-06-18T21:23:14.336160,13.56043172,.0013309,88.9245,222.3786,101.8321,258.4326,0,U,44785,999,32596,.58316E-4,.53E-6,0
CARTOSAT-3,2019-081A,2026-06-18T20:52:27.314976,15.19286725,.0013341,97.4297,231.7103,142.7440,217.4723,0,U,44804,999,36372,.57994E-4,.1158E-4,0
JILIN-1 GAOFEN 2B,2019-086A,2026-06-18T20:35:32.462304,15.20725197,.0012783,97.4879,241.8385,317.9323,42.0930,0,U,44836,999,36074,.19807E-3,.4295E-4,0
TIANQIN 1 (CAS-6),2019-093A,2026-06-18T19:53:40.591392,14.95438602,.0012043,97.7805,253.6568,52.2718,307.9593,0,U,44879,999,35229,.15454E-3,.1652E-4,0
ETRSS-1,2019-093B,2026-06-18T20:02:48.992064,14.95871453,.0012185,97.7818,254.1235,53.1310,307.1026,0,U,44880,999,35230,.184E-3,.2001E-4,0
TIANYAN 01,2019-093C,2026-06-18T20:41:33.398304,14.86519282,.001507,97.7532,242.0535,81.7877,278.5047,0,U,44881,999,35166,.58455E-5,-.2E-7,0
TIANYAN 02,2019-093D,2026-06-18T20:20:57.491232,15.05243842,.0013973,97.7941,264.6540,24.8303,335.3592,0,U,44882,999,35286,.32418E-3,.4576E-4,0
CBERS 4A,2019-093E,2026-06-18T20:18:01.020096,14.81398712,.0000631,98.0191,237.2875,47.2238,312.9027,0,U,44883,999,35132,-.33222E-4,-.313E-5,0
WEILAI 1R,2019-093F,2026-06-18T20:31:05.965824,15.00655431,.0017832,97.7860,259.7428,31.6491,328.5801,0,U,44884,999,35267,.25677E-3,.3197E-4,0
FLORIPASAT-1,2019-093G,2026-06-18T19:44:09.662784,15.03883779,.0012482,97.7909,264.0635,66.6572,293.5965,0,U,44885,999,35289,.31476E-3,.4279E-4,0
SHUNTIAN,2019-093H,2026-06-18T19:32:30.117408,14.95168856,.0013242,97.8020,257.9668,63.0316,297.2255,0,U,44886,999,35242,.16638E-3,.1771E-4,0
