FORMOSAT 7-3            
1 44343U 19036E   26169.37338797  .00003016  00000+0  16102-3 0  9990
2 44343  23.9974 170.3761 0000316 298.1513  61.8958 15.09805082383423
FORMOSAT 7-1            
1 44349U 19036L   26168.91373732  .00002274  00000+0  16935-3 0  9992
2 44349  23.9987  27.4949 0000746 163.4061 196.6465 14.96508462384767
FORMOSAT 7-4            
1 44350U 19036M   26169.86970052  .00002081  00000+0  15278-3 0  9992
2 44350  23.9980  83.1546 0001041 199.7462 160.2999 14.96503379384323
FORMOSAT 7-2            
1 44351U 19036N   26169.02523322  .00002008  00000+0  14649-3 0  9995
2 44351  23.9964 143.1646 0000662 170.5801 189.4713 14.96501020383716
FORMOSAT 7-6            
1 44353U 19036Q   26169.75843904  .00002255  00000+0  16763-3 0  9991
2 44353  23.9990 319.0385 0001398 106.6528 253.4127 14.96517563382050
FORMOSAT 7-5            
1 44358U 19036V   26169.53565557  .00002045  00000+0  14961-3 0  9992
2 44358  23.9984 259.2921 0000483 124.9382 235.1164 14.96522726382554
METEOR-M2 2             
1 44387U 19038A   26169.86033359  .00000042  00000+0  38117-4 0  9997
2 44387  98.9145 157.1706 0002012  45.4805 314.6537 14.24366548361532
GLOBAL-4                
1 44499U 19054E   26169.86553781  .00036955  00000+0  37594-3 0  9994
2 44499  45.0042 226.7147 0005790 345.3319  14.7410 15.64546592380628
ZY-1 02D                
1 44528U 19059A   26169.46303711  .00000107  00000+0  52043-4 0  9991
2 44528  98.5262 230.9234 0003505  50.6973 309.4523 14.35798543354527
TAURUS-1 (JINNIUZUO 1)  
1 44530U 19059C   26169.80608281  .00004701  00000+0  75535-3 0  9996
2 44530  98.6417 334.7334 0007380 310.2454  49.8106 14.72109570358883
ZHUHAI-1 03B            
1 44536U 19060C   26169.85740035  .00024774  00000+0  38149-3 0  9995
2 44536  97.5534 327.7122 0007365 310.5981  49.4631 15.54165545376586
ZHUHAI-1 03D            
1 44538U 19060E   26169.83792089  .00025656  00000+0  46112-3 0  9990
2 44538  97.5400 319.7989 0006594 293.2367  66.8189 15.49828745376336
ZHUHAI-1 03E            
1 44539U 19060F   26169.86681801  .00013671  00000+0  33213-3 0  9995
2 44539  97.5621 319.8717 0005771  27.5433 332.6118 15.41110748376021
GAOFEN-7                
1 44703U 19072A   26169.84338756  .00003150  00000+0  14329-3 0  9995
2 44703  97.2424 231.2485 0018683  35.8830 324.3657 15.21273714367892
JILIN-1 GAOFEN 2A       
1 44777U 19075A   26169.82526256  .00010882  00000+0  28053-3 0  9990
2 44777  97.4964 253.6535 0007401  82.8122 277.3964 15.39345912365132
NINGXIA-1 1             
1 44779U 19076A   26169.82050427 -.00000097  00000+0  21269-4 0  9996
2 44779  45.0036 172.5527 0010734 171.3875 188.7145 14.02038377338088
NINGXIA-1 5             
1 44783U 19076E   26169.83374135 -.00000220  00000+0 -58295-4 0  9995
2 44783  45.0031 171.8345 0010163 161.1999 198.9212 14.02085669338004
KL-ALPHA A              
1 44785U 19077A   26169.89113815  .00000053  00000+0  58316-4 0  9996
2 44785  88.9245 222.3786 0013309 101.8321 258.4326 13.56043172325965
CARTOSAT-3              
1 44804U 19081A   26169.86976059  .00001158  00000+0  57994-4 0  9995
2 44804  97.4297 231.7103 0013341 142.7440 217.4723 15.19286725363724
JILIN-1 GAOFEN 2B       
1 44836U 19086A   26169.85801461  .00004295  00000+0  19807-3 0  9993
2 44836  97.4879 241.8385 0012783 317.9323  42.0930 15.20725197360748
TIANQIN 1 (CAS-6)       
1 44879U 19093A   26169.82894203  .00001652  00000+0  15454-3 0  9999
2 44879  97.7805 253.6568 0012043  52.2718 307.9593 14.95438602352299
ETRSS-1                 
1 44880U 19093B   26169.83528926  .00002001  00000+0  18400-3 0  9991
2 44880  97.7818 254.1235 0012185  53.1310 307.1026 14.95871453352307
TIANYAN 01              
1 44881U 19093C   26169.86219211 -.00000002  00000+0  58455-5 0  9995
2 44881  97.7532 242.0535 0015070  81.7877 278.5047 14.86519282351662
TIANYAN 02              
1 44882U 19093D   26169.84788763  .00004576  00000+0  32418-3 0  9995
2 44882  97.7941 264.6540 0013973  24.8303 335.3592 15.05243842352863
CBERS 4A                
1 44883U 19093E   26169.84584514 -.00000313  00000+0 -33222-4 0  9996
2 44883  98.0191 237.2875 0000631  47.2238 312.9027 14.81398712351329
WEILAI 1R               
1 44884U 19093F   26169.85493016  .00003197  00000+0  25677-3 0  9999
2 44884  97.7860 259.7428 0017832  31.6491 328.5801 15.00655431352679
FLORIPASAT-1            
1 44885U 19093G   26169.82233406  .00004279  00000+0  31476-3 0  9998
2 44885  97.7909 264.0635 0012482  66.6572 293.5965 15.03883779352894
SHUNTIAN                
1 44886U 19093H   26169.81423747  .00001771  00000+0  16638-3 0  9994
2 44886  97.8020 257.9668 0013242  63.0316 297.2255 14.95168856352423
